OBJECT_NAME,OBJECT_ID,EPOCH,MEAN_MOTION,ECCENTRICITY,INCLINATION,RA_OF_ASC_NODE,ARG_OF_PERICENTER,MEAN_ANOMALY,EPHEMERIS_TYPE,CLASSIFICATION_TYPE,NORAD_CAT_ID,ELEMENT_SET_NO,REV_AT_EPOCH,BSTAR,MEAN_MOTION_DOT,MEAN_MOTION_DDOT
STARLINK-2659,2021-040AR,2026-06-27T21:38:31.604352,15.31696066,.00010329,53.1589,38.2386,89.9959,270.1161,0,U,48467,999,28339,-.51948191E-4,-.1976E-4,0
STARLINK-2685,2021-040AS,2026-06-27T20:31:29.813952,15.31685715,.00013704,53.1609,38.8337,86.6589,273.4570,0,U,48468,999,28338,-.34190668E-4,-.1425E-4,0
STARLINK-2661,2021-040AT,2026-06-27T20:24:44.177184,15.31694001,.00011018,53.1597,38.6632,87.6189,272.4939,0,U,48469,999,28338,-.41690419E-4,-.1658E-4,0
STARLINK-2675,2021-040AU,2026-06-27T21:31:49.931616,15.31693412,.00010676,53.1613,38.3079,86.5341,273.5782,0,U,48470,999,28338,.11834306E-4,.2E-7,0
STARLINK-2684,2021-040AV,2026-06-27T21:25:06.965472,15.31689114,.00010454,53.1594,38.3375,78.8091,281.3028,0,U,48471,999,28338,.80909966E-3,.24817E-3,0
STARLINK-2722,2021-040AW,2026-06-27T21:50:12.901056,15.12840586,.00024634,53.0595,53.5961,89.3090,270.8184,0,U,48472,999,28314,.14367125E-2,.25336E-3,0
STARLINK-2658,2021-040AX,2026-06-27T21:45:14.504832,15.31696783,.00011257,53.1590,38.2270,95.3894,264.7236,0,U,48473,999,28338,-.72801363E-4,-.2623E-4,0
STARLINK-2697,2021-040AY,2026-06-27T21:05:07.126080,15.31689581,.00011302,53.1606,39.1071,94.5713,265.5418,0,U,48474,999,28336,.10323766E-4,-.45E-6,0
STARLINK-2728,2021-040BC,2026-06-27T20:44:51.735552,15.31691108,.00013243,53.1611,38.5567,81.5483,278.5668,0,U,48478,999,28337,-.10599506E-3,-.3652E-4,0
STARLINK-2755,2021-040BD,2026-06-27T21:11:45.445632,15.31691519,.00010801,53.1604,38.7248,60.9148,299.1961,0,U,48479,999,28337,.58102967E-3,.17703E-3,0
STARLINK-2706,2021-040BF,2026-06-27T21:46:41.326464,15.31691800,.00010879,53.1596,40.7120,83.3154,276.7971,0,U,48481,999,28335,.9084434E-5,-.83E-6,0
STARLINK-2525,2021-040BG,2026-06-27T21:06:30.191040,15.31684728,.00015427,53.1604,41.2590,91.7517,268.3661,0,U,48482,999,28334,.30976831E-4,.596E-5,0
STARLINK-2531,2021-040BH,2026-06-27T21:26:40.143552,15.31700711,.0001001,53.1600,41.3726,89.8621,270.2496,0,U,48483,999,28334,.75535208E-4,.198E-4,0
STARLINK-2500,2021-040BK,2026-06-27T20:46:19.976736,15.31689215,.00014328,53.1604,41.1464,88.0468,272.0697,0,U,48485,999,28334,-.2281688E-4,-.1073E-4,0
STARLINK-2494,2021-040BM,2026-06-27T21:40:05.077056,15.31694715,.00010963,53.1591,41.2750,81.7395,278.3731,0,U,48487,999,28335,-.1910782E-4,-.958E-5,0
STARLINK-2063,2021-041A,2026-06-27T19:54:58.154400,15.31696201,.00012379,53.1615,334.3852,69.5679,290.5455,0,U,48553,999,28215,.10137529E-4,-.51E-6,0
STARLINK-2139,2021-041B,2026-06-27T19:48:14.001984,15.31697108,.00012776,53.1604,334.3076,79.4405,280.6741,0,U,48554,999,28215,-.24502888E-4,-.1125E-4,0
STARLINK-2145,2021-041C,2026-06-27T21:37:03.757152,15.31693555,.00012112,53.1602,356.1964,84.4126,275.7014,0,U,48555,999,28183,-.47702324E-4,-.1845E-4,0
STARLINK-2151,2021-041D,2026-06-27T18:20:12.902208,15.31703367,.00007507,53.1591,350.3302,68.6979,291.4103,0,U,48556,999,28191,-.14547156E-4,-.816E-5,0
STARLINK-2155,2021-041E,2026-06-27T19:07:59.339712,15.31699702,.00009315,53.1589,334.5901,91.8283,268.2826,0,U,48557,999,28214,-.32285688E-4,-.1367E-4,0
STARLINK-2166,2021-041F,2026-06-27T20:35:14.538624,15.31692720,.00011715,53.1590,334.2957,78.9017,281.2116,0,U,48558,999,28129,-.22539099E-4,-.1064E-4,0
STARLINK-2187,2021-041K,2026-06-28T00:00:02.000160,15.66731698,.00013494,53.1541,323.5745,90.6401,129.9487,0,U,48562,999,582,-.3915826E-2,-.40069E-2,0
STARLINK-2188,2021-041L,2026-06-27T20:15:05.363712,15.31699463,.00013424,53.1607,334.2412,79.9066,280.2087,0,U,48563,999,28215,.31257791E-4,.605E-5,0
STARLINK-2190,2021-041M,2026-06-27T20:01:39.915264,15.31698429,.0001171,53.1605,334.2652,79.7529,280.3604,0,U,48564,999,28215,.45391916E-4,.1044E-4,0
STARLINK-2214,2021-041P,2026-06-27T21:30:20.766816,15.31694233,.00011602,53.1602,356.1820,70.7638,289.3488,0,U,48566,999,28183,.82866493E-4,.2207E-4,0
STARLINK-2217,2021-041R,2026-06-27T20:28:35.030208,15.31695531,.00010132,53.1594,334.6167,80.5660,279.5456,0,U,48568,999,28214,.11903859E-4,.4E-7,0
STARLINK-2219,2021-041S,2026-06-27T20:08:21.882624,15.31692939,.00012635,53.1599,334.2520,79.5649,280.5495,0,U,48569,999,28215,-.77115456E-4,-.2757E-4,0
STARLINK-2221,2021-041U,2026-06-27T20:33:54.753408,15.31710767,.00010151,53.1605,347.0101,83.6848,276.4269,0,U,48571,999,28197,.93510253E-3,.28774E-3,0
STARLINK-2222,2021-041V,2026-06-27T19:22:49.673568,15.31692954,.00012352,53.1599,356.6043,91.2847,268.8296,0,U,48572,999,28182,-.9573088E-4,-.3334E-4,0
STARLINK-2224,2021-041W,2026-06-27T20:55:29.237952,15.31690782,.00011517,53.1618,334.7529,111.3703,248.7421,0,U,48573,999,28214,.3306246E-5,-.262E-5,0
