STARLINK-2659           
1 48467U 21040AR  26178.90175468 -.00001976  00000+0 -51948-4 0  9995
2 48467  53.1589  38.2386 0001032  89.9959 270.1161 15.31696066283393
STARLINK-2685           
1 48468U 21040AS  26178.85520618 -.00001425  00000+0 -34191-4 0  9991
2 48468  53.1609  38.8337 0001370  86.6589 273.4570 15.31685715283385
STARLINK-2661           
1 48469U 21040AT  26178.85051131 -.00001658  00000+0 -41690-4 0  9991
2 48469  53.1597  38.6632 0001101  87.6189 272.4939 15.31694001283383
STARLINK-2675           
1 48470U 21040AU  26178.89710569  .00000002  00000+0  11834-4 0  9991
2 48470  53.1613  38.3079 0001067  86.5341 273.5782 15.31693412283388
STARLINK-2684           
1 48471U 21040AV  26178.89244173  .00024817  00000+0  80910-3 0  9995
2 48471  53.1594  38.3375 0001045  78.8091 281.3028 15.31689114283382
STARLINK-2722           
1 48472U 21040AW  26178.90987154  .00025336  00000+0  14367-2 0  9990
2 48472  53.0595  53.5961 0002463  89.3090 270.8184 15.12840586283145
STARLINK-2658           
1 48473U 21040AX  26178.90641788 -.00002623  00000+0 -72801-4 0  9996
2 48473  53.1590  38.2270 0001125  95.3894 264.7236 15.31696783283383
STARLINK-2697           
1 48474U 21040AY  26178.87855470 -.00000045  00000+0  10324-4 0  9995
2 48474  53.1606  39.1071 0001130  94.5713 265.5418 15.31689581283365
STARLINK-2728           
1 48478U 21040BC  26178.86448768 -.00003652  00000+0 -10600-3 0  9990
2 48478  53.1611  38.5567 0001324  81.5483 278.5668 15.31691108283373
STARLINK-2755           
1 48479U 21040BD  26178.88316488  .00017703  00000+0  58103-3 0  9996
2 48479  53.1604  38.7248 0001080  60.9148 299.1961 15.31691519283373
STARLINK-2706           
1 48481U 21040BF  26178.90742276 -.00000083  00000+0  90844-5 0  9994
2 48481  53.1596  40.7120 0001087  83.3154 276.7971 15.31691800283354
STARLINK-2525           
1 48482U 21040BG  26178.87951610  .00000596  00000+0  30977-4 0  9993
2 48482  53.1604  41.2590 0001542  91.7517 268.3661 15.31684728283347
STARLINK-2531           
1 48483U 21040BH  26178.89352018  .00001980  00000+0  75535-4 0  9990
2 48483  53.1600  41.3726 0001001  89.8621 270.2496 15.31700711283349
STARLINK-2500           
1 48485U 21040BK  26178.86550899 -.00001073  00000+0 -22817-4 0  9996
2 48485  53.1604  41.1464 0001432  88.0468 272.0697 15.31689215283348
STARLINK-2494           
1 48487U 21040BM  26178.90283654 -.00000958  00000+0 -19108-4 0  9995
2 48487  53.1591  41.2750 0001096  81.7395 278.3731 15.31694715283359
STARLINK-2063           
1 48553U 21041A   26178.82983975 -.00000051  00000+0  10138-4 0  9991
2 48553  53.1615 334.3852 0001237  69.5679 290.5455 15.31696201282153
STARLINK-2139           
1 48554U 21041B   26178.82516206 -.00001125  00000+0 -24503-4 0  9996
2 48554  53.1604 334.3076 0001277  79.4405 280.6741 15.31697108282156
STARLINK-2145           
1 48555U 21041C   26178.90073793 -.00001845  00000+0 -47702-4 0  9990
2 48555  53.1602 356.1964 0001211  84.4126 275.7014 15.31693555281831
STARLINK-2151           
1 48556U 21041D   26178.76403822 -.00000816  00000+0 -14547-4 0  9993
2 48556  53.1591 350.3302 0000750  68.6979 291.4103 15.31703367281914
STARLINK-2155           
1 48557U 21041E   26178.79721458 -.00001367  00000+0 -32286-4 0  9997
2 48557  53.1589 334.5901 0000931  91.8283 268.2826 15.31699702282145
STARLINK-2166           
1 48558U 21041F   26178.85780716 -.00001064  00000+0 -22539-4 0  9991
2 48558  53.1590 334.2957 0001171  78.9017 281.2116 15.31692720281299
STARLINK-2187           
1 48562U 21041K   26179.00002315 -.00400690  00000+0 -39158-2 0  9997
2 48562  53.1541 323.5745 0001349  90.6401 129.9487 15.66731698  5829
STARLINK-2188           
1 48563U 21041L   26178.84381208  .00000605  00000+0  31258-4 0  9995
2 48563  53.1607 334.2412 0001342  79.9066 280.2087 15.31699463282158
STARLINK-2190           
1 48564U 21041M   26178.83448976  .00001044  00000+0  45392-4 0  9993
2 48564  53.1605 334.2652 0001171  79.7529 280.3604 15.31698429282152
STARLINK-2214           
1 48566U 21041P   26178.89607369  .00002207  00000+0  82866-4 0  9993
2 48566  53.1602 356.1820 0001160  70.7638 289.3488 15.31694233281833
STARLINK-2217           
1 48568U 21041R   26178.85318322  .00000004  00000+0  11904-4 0  9997
2 48568  53.1594 334.6167 0001013  80.5660 279.5456 15.31695531282144
STARLINK-2219           
1 48569U 21041S   26178.83914216 -.00002757  00000+0 -77115-4 0  9995
2 48569  53.1599 334.2520 0001263  79.5649 280.5495 15.31692939282156
STARLINK-2221           
1 48571U 21041U   26178.85688372  .00028774  00000+0  93510-3 0  9992
2 48571  53.1605 347.0101 0001015  83.6848 276.4269 15.31710767281978
STARLINK-2222           
1 48572U 21041V   26178.80751937 -.00003334  00000+0 -95731-4 0  9991
2 48572  53.1599 356.6043 0001235  91.2847 268.8296 15.31692954281826
STARLINK-2224           
1 48573U 21041W   26178.87186618 -.00000262  00000+0  33062-5 0  9993
2 48573  53.1618 334.7529 0001151 111.3703 248.7421 15.31690782282147
